{"type": "FeatureCollection", "features": [ {"type": "Feature", "properties": {"norad_id": 39574, "name": "GPM-CORE", "group": "resource", "lat": 50.878270108647676, "lon": 20.92348855158674, "alt_km": 430.90057885608076, "timestamp": "2025-12-05T18:53:12.953811+00:00", "meta": {"OBJECT_NAME": "GPM-CORE", "OBJECT_ID": "2014-009C", "EPOCH": "2025-12-05T05:56:18.813408", "MEAN_MOTION": 15.45273764, "ECCENTRICITY": 0.00105365, "INCLINATION": 64.9749, "RA_OF_ASC_NODE": 237.7897, "ARG_OF_PERICENTER": 269.2243, "MEAN_ANOMALY": 90.769, "EPHEMERIS_TYPE": 0, "CLASSIFICATION_TYPE": "U", "NORAD_CAT_ID": 39574, "ELEMENT_SET_NO": 999, "REV_AT_EPOCH": 66785, "BSTAR": 0.00051753336, "MEAN_MOTION_DOT": 0.00024653, "MEAN_MOTION_DDOT": 0}, "tle": {"line1": "1 39574U 14009C   25339.24743997  .00024653  00000+0  51753-3 0  9992", "line2": "2 39574  64.9749 237.7897 0010536 269.2243  90.7690 15.45273764667852"}}, "geometry": {"type": "Point", "coordinates": [20.92348855158674, 50.878270108647676]}}, {"type": "Feature", "properties": {"norad_id": 39634, "name": "SENTINEL-1A", "group": "resource", "lat": -18.121512730092064, "lon": -12.170635455839161, "alt_km": 701.0106465873514, "timestamp": "2025-12-05T18:53:12.953822+00:00", "meta": {"OBJECT_NAME": "SENTINEL-1A", "OBJECT_ID": "2014-016A", "EPOCH": "2025-12-05T07:27:02.511072", "MEAN_MOTION": 14.59202279, "ECCENTRICITY": 0.00012375, "INCLINATION": 98.1804, "RA_OF_ASC_NODE": 344.6616, "ARG_OF_PERICENTER": 89.84, "MEAN_ANOMALY": 270.2942, "EPHEMERIS_TYPE": 0, "CLASSIFICATION_TYPE": "U", "NORAD_CAT_ID": 39634, "ELEMENT_SET_NO": 999, "REV_AT_EPOCH": 62174, "BSTAR": 6.0487101e-05, "MEAN_MOTION_DOT": 2.39e-06, "MEAN_MOTION_DDOT": 0}, "tle": {"line1": "1 39634U 14016A   25339.31044573  .00000239  00000+0  60487-4 0  9998", "line2": "2 39634  98.1804 344.6616 0001237  89.8400 270.2942 14.59202279621746"}}, "geometry": {"type": "Point", "coordinates": [-12.170635455839161, -18.121512730092064]}}, {"type": "Feature", "properties": {"norad_id": 39731, "name": "KAZEOSAT 1", "group": "resource", "lat": 24.27612511864274, "lon": 48.05473050521347, "alt_km": 750.8550437527238, "timestamp": "2025-12-05T18:53:12.953832+00:00", "meta": {"OBJECT_NAME": "KAZEOSAT 1", "OBJECT_ID": "2014-024A", "EPOCH": "2025-12-05T07:06:59.837760", "MEAN_MOTION": 14.42055939, "ECCENTRICITY": 0.00010593, "INCLINATION": 98.3443, "RA_OF_ASC_NODE": 51.3708, "ARG_OF_PERICENTER": 99.5038, "MEAN_ANOMALY": 260.6272, "EPHEMERIS_TYPE": 0, "CLASSIFICATION_TYPE": "U", "NORAD_CAT_ID": 39731, "ELEMENT_SET_NO": 999, "REV_AT_EPOCH": 61061, "BSTAR": 0.00016429719, "MEAN_MOTION_DOT": 4.97e-06, "MEAN_MOTION_DDOT": 0}, "tle": {"line1": "1 39731U 14024A   25339.29652590  .00000497  00000+0  16430-3 0  9990", "line2": "2 39731  98.3443  51.3708 0001059  99.5038 260.6272 14.42055939610610"}}, "geometry": {"type": "Point", "coordinates": [48.05473050521347, 24.27612511864274]}}, {"type": "Feature", "properties": {"norad_id": 39766, "name": "ALOS-2", "group": "resource", "lat": 53.321093479656014, "lon": 63.95470589342148, "alt_km": 625.3745261317599, "timestamp": "2025-12-05T18:53:12.953841+00:00", "meta": {"OBJECT_NAME": "ALOS-2", "OBJECT_ID": "2014-029A", "EPOCH": "2025-12-05T07:16:51.545568", "MEAN_MOTION": 14.79456881, "ECCENTRICITY": 0.00014854, "INCLINATION": 97.9238, "RA_OF_ASC_NODE": 74.2558, "ARG_OF_PERICENTER": 106.6429, "MEAN_ANOMALY": 253.4946, "EPHEMERIS_TYPE": 0, "CLASSIFICATION_TYPE": "U", "NORAD_CAT_ID": 39766, "ELEMENT_SET_NO": 999, "REV_AT_EPOCH": 62291, "BSTAR": 0.00048657938, "MEAN_MOTION_DOT": 3.583e-05, "MEAN_MOTION_DDOT": 0}, "tle": {"line1": "1 39766U 14029A   25339.30337437  .00003583  00000+0  48658-3 0  9991", "line2": "2 39766  97.9238  74.2558 0001485 106.6429 253.4946 14.79456881622914"}}, "geometry": {"type": "Point", "coordinates": [63.95470589342148, 53.321093479656014]}}, {"type": "Feature", "properties": {"norad_id": 40010, "name": "KAZEOSAT 2", "group": "resource", "lat": -2.1437428395800526, "lon": 4.175628623209405, "alt_km": 613.1810971845034, "timestamp": "2025-12-05T18:53:12.953852+00:00", "meta": {"OBJECT_NAME": "KAZEOSAT 2", "OBJECT_ID": "2014-033A", "EPOCH": "2025-12-05T06:45:00.857952", "MEAN_MOTION": 14.85148918, "ECCENTRICITY": 0.00073211, "INCLINATION": 97.551, "RA_OF_ASC_NODE": 183.9807, "ARG_OF_PERICENTER": 234.3773, "MEAN_ANOMALY": 125.6761, "EPHEMERIS_TYPE": 0, "CLASSIFICATION_TYPE": "U", "NORAD_CAT_ID": 40010, "ELEMENT_SET_NO": 999, "REV_AT_EPOCH": 62017, "BSTAR": 0.00017184561, "MEAN_MOTION_DOT": 1.421e-05, "MEAN_MOTION_DDOT": 0}, "tle": {"line1": "1 40010U 14033A   25339.28125993  .00001421  00000+0  17185-3 0  9999", "line2": "2 40010  97.5510 183.9807 0007321 234.3773 125.6761 14.85148918620175"}}, "geometry": {"type": "Point", "coordinates": [4.175628623209405, -2.1437428395800526]}}, {"type": "Feature", "properties": {"norad_id": 40011, "name": "HODOYOSHI-4", "group": "resource", "lat": -32.050343350614455, "lon": -15.744241133439893, "alt_km": 596.5163512485469, "timestamp": "2025-12-05T18:53:12.953862+00:00", "meta": {"OBJECT_NAME": "HODOYOSHI-4", "OBJECT_ID": "2014-033B", "EPOCH": "2025-12-05T06:37:58.497600", "MEAN_MOTION": 14.87438469, "ECCENTRICITY": 0.00227531, "INCLINATION": 97.5412, "RA_OF_ASC_NODE": 168.5282, "ARG_OF_PERICENTER": 226.0863, "MEAN_ANOMALY": 133.8476, "EPHEMERIS_TYPE": 0, "CLASSIFICATION_TYPE": "U", "NORAD_CAT_ID": 40011, "ELEMENT_SET_NO": 999, "REV_AT_EPOCH": 61997, "BSTAR": 0.00044399097, "MEAN_MOTION_DOT": 3.986e-05, "MEAN_MOTION_DDOT": 0}, "tle": {"line1": "1 40011U 14033B   25339.27637150  .00003986  00000+0  44399-3 0  9997", "line2": "2 40011  97.5412 168.5282 0022753 226.0863 133.8476 14.87438469619972"}}, "geometry": {"type": "Point", "coordinates": [-15.744241133439893, -32.050343350614455]}}, {"type": "Feature", "properties": {"norad_id": 40013, "name": "DEIMOS-2", "group": "resource", "lat": -51.772135403432515, "lon": 26.04751550204935, "alt_km": 596.312636477357, "timestamp": "2025-12-05T18:53:12.953872+00:00", "meta": {"OBJECT_NAME": "DEIMOS-2", "OBJECT_ID": "2014-033D", "EPOCH": "2025-12-05T06:35:21.482880", "MEAN_MOTION": 14.92920582, "ECCENTRICITY": 9.449e-05, "INCLINATION": 97.6071, "RA_OF_ASC_NODE": 215.3204, "ARG_OF_PERICENTER": 92.5974, "MEAN_ANOMALY": 267.5354, "EPHEMERIS_TYPE": 0, "CLASSIFICATION_TYPE": "U", "NORAD_CAT_ID": 40013, "ELEMENT_SET_NO": 999, "REV_AT_EPOCH": 60878, "BSTAR": 0.00049174711, "MEAN_MOTION_DOT": 5.048e-05, "MEAN_MOTION_DDOT": 0}, "tle": {"line1": "1 40013U 14033D   25339.27455420  .00005048  00000+0  49175-3 0  9995", "line2": "2 40013  97.6071 215.3204 0000944  92.5974 267.5354 14.92920582608783"}}, "geometry": {"type": "Point", "coordinates": [26.04751550204935, -51.772135403432515]}}, {"type": "Feature", "properties": {"norad_id": 40015, "name": "HODOYOSHI-3", "group": "resource", "lat": -24.037725866054092, "lon": -37.49856563342637, "alt_km": 611.3489160228719, "timestamp": "2025-12-05T18:53:12.953882+00:00", "meta": {"OBJECT_NAME": "HODOYOSHI-3", "OBJECT_ID": "2014-033F", "EPOCH": "2025-12-05T06:38:42.881280", "MEAN_MOTION": 14.84766036, "ECCENTRICITY": 0.00318393, "INCLINATION": 97.6194, "RA_OF_ASC_NODE": 145.4367, "ARG_OF_PERICENTER": 273.4939, "MEAN_ANOMALY": 86.2635, "EPHEMERIS_TYPE": 0, "CLASSIFICATION_TYPE": "U", "NORAD_CAT_ID": 40015, "ELEMENT_SET_NO": 999, "REV_AT_EPOCH": 61884, "BSTAR": 0.0004179405, "MEAN_MOTION_DOT": 3.524e-05, "MEAN_MOTION_DDOT": 0}, "tle": {"line1": "1 40015U 14033F   25339.27688520  .00003524  00000+0  41794-3 0  9992", "line2": "2 40015  97.6194 145.4367 0031839 273.4939  86.2635 14.84766036618841"}}, "geometry": {"type": "Point", "coordinates": [-37.49856563342637, -24.037725866054092]}}, {"type": "Feature", "properties": {"norad_id": 40053, "name": "SPOT 7", "group": "resource", "lat": 11.399616676132682, "lon": -136.33384529873305, "alt_km": 691.9376944971791, "timestamp": "2025-12-05T18:53:12.953893+00:00", "meta": {"OBJECT_NAME": "SPOT 7", "OBJECT_ID": "2014-034A", "EPOCH": "2025-12-05T08:15:17.005248", "MEAN_MOTION": 14.60719281, "ECCENTRICITY": 0.00015279, "INCLINATION": 98.0916, "RA_OF_ASC_NODE": 41.5896, "ARG_OF_PERICENTER": 95.9133, "MEAN_ANOMALY": 264.2242, "EPHEMERIS_TYPE": 0, "CLASSIFICATION_TYPE": "U", "NORAD_CAT_ID": 40053, "ELEMENT_SET_NO": 999, "REV_AT_EPOCH": 60883, "BSTAR": 0.00024255522, "MEAN_MOTION_DOT": 1.137e-05, "MEAN_MOTION_DDOT": 0}, "tle": {"line1": "1 40053U 14034A   25339.34394682  .00001137  00000+0  24256-3 0  9998", "line2": "2 40053  98.0916  41.5896 0001527  95.9133 264.2242 14.60719281608831"}}, "geometry": {"type": "Point", "coordinates": [-136.33384529873305, 11.399616676132682]}}, {"type": "Feature", "properties": {"norad_id": 40072, "name": "SKYSAT-B", "group": "resource", "lat": 20.86239762579148, "lon": 106.33893057350973, "alt_km": 602.5953176400544, "timestamp": "2025-12-05T18:53:12.953903+00:00", "meta": {"OBJECT_NAME": "SKYSAT-B", "OBJECT_ID": "2014-037D", "EPOCH": "2025-12-05T05:15:28.764288", "MEAN_MOTION": 14.87283111, "ECCENTRICITY": 0.00055298, "INCLINATION": 98.3598, "RA_OF_ASC_NODE": 282.5286, "ARG_OF_PERICENTER": 172.8855, "MEAN_ANOMALY": 187.2439, "EPHEMERIS_TYPE": 0, "CLASSIFICATION_TYPE": "U", "NORAD_CAT_ID": 40072, "ELEMENT_SET_NO": 999, "REV_AT_EPOCH": 61712, "BSTAR": 0.00038962845, "MEAN_MOTION_DOT": 3.454e-05, "MEAN_MOTION_DDOT": 0}, "tle": {"line1": "1 40072U 14037D   25339.21908292  .00003454  00000+0  38963-3 0  9990", "line2": "2 40072  98.3598 282.5286 0005529 172.8855 187.2439 14.87283111617124"}}, "geometry": {"type": "Point", "coordinates": [106.33893057350973, 20.86239762579148]}}]}